{
  "type": "FeatureCollection",
  "features": [
    {
      "type": "Feature",
      "properties": {
        "norad_id": 30199,
        "name": "FENGYUN 1C DEB",
        "group": "fengyun-1c-debris",
        "lat": -46.19416432696102,
        "lon": 177.35948009050156,
        "alt_km": 774.8670829170178,
        "timestamp": "2025-12-08T08:59:01.040357+00:00",
        "meta_object_name": "FENGYUN 1C DEB",
        "meta_object_id": "1999-025VG",
        "meta_epoch": "2025-12-07T23:51:48.542976",
        "meta_mean_motion": 14.38469569,
        "meta_eccentricity": 0.00778863,
        "meta_inclination": 98.3852,
        "meta_ra_of_asc_node": 5.8343,
        "meta_arg_of_pericenter": 323.0518,
        "meta_mean_anomaly": 97.8751,
        "meta_ephemeris_type": 0,
        "meta_classification_type": "U",
        "meta_norad_cat_id": 30199,
        "meta_element_set_no": 999,
        "meta_rev_at_epoch": 98342,
        "meta_bstar": 0.0012980518,
        "meta_mean_motion_dot": 4.063e-05,
        "meta_mean_motion_ddot": 0,
        "tle_line1": "1 30199U 99025VG  25341.99431184  .00004063  00000+0  12981-2 0  9996",
        "tle_line2": "2 30199  98.3852   5.8343 0077886 323.0518  97.8751 14.38469569983428"
      },
      "geometry": {
        "type": "Point",
        "coordinates": [
          177.35948009050156,
          -46.19416432696102
        ]
      }
    },
    {
      "type": "Feature",
      "properties": {
        "norad_id": 30200,
        "name": "FENGYUN 1C DEB",
        "group": "fengyun-1c-debris",
        "lat": 79.8500540132066,
        "lon": 60.693349779325324,
        "alt_km": 708.6982165358122,
        "timestamp": "2025-12-08T08:59:01.040367+00:00",
        "meta_object_name": "FENGYUN 1C DEB",
        "meta_object_id": "1999-025VH",
        "meta_epoch": "2025-12-07T12:17:07.706400",
        "meta_mean_motion": 14.22270964,
        "meta_eccentricity": 0.01475136,
        "meta_inclination": 99.1132,
        "meta_ra_of_asc_node": 176.0891,
        "meta_arg_of_pericenter": 114.1222,
        "meta_mean_anomaly": 247.5462,
        "meta_ephemeris_type": 0,
        "meta_classification_type": "U",
        "meta_norad_cat_id": 30200,
        "meta_element_set_no": 999,
        "meta_rev_at_epoch": 97908,
        "meta_bstar": 0.00026119674,
        "meta_mean_motion_dot": 6.02e-06,
        "meta_mean_motion_ddot": 0,
        "tle_line1": "1 30200U 99025VH  25341.51189475  .00000602  00000+0  26120-3 0  9996",
        "tle_line2": "2 30200  99.1132 176.0891 0147513 114.1222 247.5462 14.22270964979088"
      },
      "geometry": {
        "type": "Point",
        "coordinates": [
          60.693349779325324,
          79.8500540132066
        ]
      }
    },
    {
      "type": "Feature",
      "properties": {
        "norad_id": 30201,
        "name": "FENGYUN 1C DEB",
        "group": "fengyun-1c-debris",
        "lat": -4.908037316408799,
        "lon": 117.11107208850335,
        "alt_km": 800.9370614794361,
        "timestamp": "2025-12-08T08:59:01.040377+00:00",
        "meta_object_name": "FENGYUN 1C DEB",
        "meta_object_id": "1999-025VJ",
        "meta_epoch": "2025-12-07T19:30:21.926592",
        "meta_mean_motion": 14.22926852,
        "meta_eccentricity": 0.00288341,
        "meta_inclination": 99.4007,
        "meta_ra_of_asc_node": 115.697,
        "meta_arg_of_pericenter": 327.0653,
        "meta_mean_anomaly": 32.8725,
        "meta_ephemeris_type": 0,
        "meta_classification_type": "U",
        "meta_norad_cat_id": 30201,
        "meta_element_set_no": 999,
        "meta_rev_at_epoch": 97757,
        "meta_bstar": 0.00078951987,
        "meta_mean_motion_dot": 1.733e-05,
        "meta_mean_motion_ddot": 0,
        "tle_line1": "1 30201U 99025VJ  25341.81275378  .00001733  00000+0  78952-3 0  9994",
        "tle_line2": "2 30201  99.4007 115.6970 0028834 327.0653  32.8725 14.22926852977570"
      },
      "geometry": {
        "type": "Point",
        "coordinates": [
          117.11107208850335,
          -4.908037316408799
        ]
      }
    },
    {
      "type": "Feature",
      "properties": {
        "norad_id": 30202,
        "name": "FENGYUN 1C DEB",
        "group": "fengyun-1c-debris",
        "lat": -52.79701620769328,
        "lon": -112.01871953660043,
        "alt_km": 751.5894168934437,
        "timestamp": "2025-12-08T08:59:01.040387+00:00",
        "meta_object_name": "FENGYUN 1C DEB",
        "meta_object_id": "1999-025VK",
        "meta_epoch": "2025-12-07T20:20:19.760352",
        "meta_mean_motion": 14.52237137,
        "meta_eccentricity": 0.00392256,
        "meta_inclination": 98.6407,
        "meta_ra_of_asc_node": 78.9945,
        "meta_arg_of_pericenter": 74.0305,
        "meta_mean_anomaly": 286.5206,
        "meta_ephemeris_type": 0,
        "meta_classification_type": "U",
        "meta_norad_cat_id": 30202,
        "meta_element_set_no": 999,
        "meta_rev_at_epoch": 98218,
        "meta_bstar": 0.0038368302,
        "meta_mean_motion_dot": 0.0001572,
        "meta_mean_motion_ddot": 0,
        "tle_line1": "1 30202U 99025VK  25341.84745093  .00015720  00000+0  38368-2 0  9991",
        "tle_line2": "2 30202  98.6407  78.9945 0039225  74.0305 286.5206 14.52237137982187"
      },
      "geometry": {
        "type": "Point",
        "coordinates": [
          -112.01871953660043,
          -52.79701620769328
        ]
      }
    },
    {
      "type": "Feature",
      "properties": {
        "norad_id": 30205,
        "name": "FENGYUN 1C DEB",
        "group": "fengyun-1c-debris",
        "lat": -35.20235261832439,
        "lon": -92.55419528981952,
        "alt_km": 860.782110155491,
        "timestamp": "2025-12-08T08:59:01.040397+00:00",
        "meta_object_name": "FENGYUN 1C DEB",
        "meta_object_id": "1999-025VN",
        "meta_epoch": "2025-12-07T06:08:44.205216",
        "meta_mean_motion": 13.88034197,
        "meta_eccentricity": 0.01207971,
        "meta_inclination": 98.9968,
        "meta_ra_of_asc_node": 92.785,
        "meta_arg_of_pericenter": 194.6653,
        "meta_mean_anomaly": 195.5989,
        "meta_ephemeris_type": 0,
        "meta_classification_type": "U",
        "meta_norad_cat_id": 30205,
        "meta_element_set_no": 999,
        "meta_rev_at_epoch": 95562,
        "meta_bstar": 0.00065760839,
        "meta_mean_motion_dot": 7.88e-06,
        "meta_mean_motion_ddot": 0,
        "tle_line1": "1 30205U 99025VN  25341.25606719  .00000788  00000+0  65761-3 0  9996",
        "tle_line2": "2 30205  98.9968  92.7850 0120797 194.6653 195.5989 13.88034197955629"
      },
      "geometry": {
        "type": "Point",
        "coordinates": [
          -92.55419528981952,
          -35.20235261832439
        ]
      }
    },
    {
      "type": "Feature",
      "properties": {
        "norad_id": 30206,
        "name": "FENGYUN 1C DEB",
        "group": "fengyun-1c-debris",
        "lat": -79.87544821138285,
        "lon": 107.58396911453072,
        "alt_km": 821.0431349515857,
        "timestamp": "2025-12-08T08:59:01.040407+00:00",
        "meta_object_name": "FENGYUN 1C DEB",
        "meta_object_id": "1999-025VP",
        "meta_epoch": "2025-12-07T23:29:03.733152",
        "meta_mean_motion": 14.49123442,
        "meta_eccentricity": 0.01462259,
        "meta_inclination": 98.2313,
        "meta_ra_of_asc_node": 341.3558,
        "meta_arg_of_pericenter": 50.8224,
        "meta_mean_anomaly": 310.5854,
        "meta_ephemeris_type": 0,
        "meta_classification_type": "U",
        "meta_norad_cat_id": 30206,
        "meta_element_set_no": 999,
        "meta_rev_at_epoch": 99332,
        "meta_bstar": 0.0006495137,
        "meta_mean_motion_dot": 2.781e-05,
        "meta_mean_motion_ddot": 0,
        "tle_line1": "1 30206U 99025VP  25341.97851543  .00002781  00000+0  64951-3 0  9998",
        "tle_line2": "2 30206  98.2313 341.3558 0146225  50.8224 310.5854 14.49123442993325"
      },
      "geometry": {
        "type": "Point",
        "coordinates": [
          107.58396911453072,
          -79.87544821138285
        ]
      }
    },
    {
      "type": "Feature",
      "properties": {
        "norad_id": 30207,
        "name": "FENGYUN 1C DEB",
        "group": "fengyun-1c-debris",
        "lat": -73.5402255573274,
        "lon": -117.22064269652331,
        "alt_km": 988.4045920009321,
        "timestamp": "2025-12-08T08:59:01.040417+00:00",
        "meta_object_name": "FENGYUN 1C DEB",
        "meta_object_id": "1999-025VQ",
        "meta_epoch": "2025-12-06T18:13:26.829120",
        "meta_mean_motion": 13.79129527,
        "meta_eccentricity": 0.02603506,
        "meta_inclination": 98.5741,
        "meta_ra_of_asc_node": 92.0216,
        "meta_arg_of_pericenter": 164.5064,
        "meta_mean_anomaly": 354.5939,
        "meta_ephemeris_type": 0,
        "meta_classification_type": "U",
        "meta_norad_cat_id": 30207,
        "meta_element_set_no": 999,
        "meta_rev_at_epoch": 94980,
        "meta_bstar": 0.00055232099,
        "meta_mean_motion_dot": 6.91e-06,
        "meta_mean_motion_ddot": 0,
        "tle_line1": "1 30207U 99025VQ  25340.75933830  .00000691  00000+0  55232-3 0  9994",
        "tle_line2": "2 30207  98.5741  92.0216 0260350 164.5064 354.5939 13.79129527949804"
      },
      "geometry": {
        "type": "Point",
        "coordinates": [
          -117.22064269652331,
          -73.5402255573274
        ]
      }
    }
  ]
}